ORBCOMM FM24            
1 25478U 98053D   25174.90600174  .00000482  00000+0  20403-3 0  9992
2 25478  45.0071 237.2406 0004481 253.9642 106.0713 14.38113780398416
ORBCOMM FM25            
1 25479U 98053E   25174.87746739  .00000433  00000+0  18810-3 0  9992
2 25479  45.0062 235.6471 0006642 266.5750  93.4338 14.38086759398701
ORBCOMM FM26            
1 25480U 98053F   25174.89333090  .00000368  00000+0  16979-3 0  9999
2 25480  45.0056 232.0780 0007977 283.3822  76.6137 14.37146342398613
ORBCOMM FM27            
1 25481U 98053G   25175.14291579  .00000488  00000+0  20611-3 0  9995
2 25481  45.0042 234.5890 0003054 253.1604 106.8910 14.38117316398719
ORBCOMM FM28            
1 25482U 98053H   25174.20722230  .00000395  00000+0  17496-3 0  9999
2 25482  45.0036 176.5159 0006495 311.9227  48.1067 14.38300342399223
ORBCOMM FM30            
1 25980U 99065A   25174.95211572  .00000493  00000+0  21102-3 0  9998
2 25980  45.0323  57.6931 0007190  38.9387 321.1979 14.37311591335423
ORBCOMM FM31            
1 25981U 99065B   25174.92567769  .00000546  00000+0  22880-3 0  9991
2 25981  45.0237  51.3057 0004375  60.1716 299.9567 14.37250786334975
ORBCOMM FM32            
1 25982U 99065C   25174.42020209  .00000513  00000+0  22192-3 0  9990
2 25982  45.0163  70.3189 0006692  52.2612 307.8841 14.36294231335496
